     2.100          NAVIGATION                              RINEX VERSION / TYPE
fic2rin                                 09/25/2017 00:06:37 PGM / RUN BY / DATE
                                                            END OF HEADER
31 17  9 24 16  0  0.0  .173173379153D-03 -.250111042988D-11  .000000000000D+00
     .184000000000D+03  .693437500000D+02  .441411243693D-08  .160733327344D+01
     .381469726562D-05  .854339846410D-02  .462681055069D-05  .515378735352D+04
     .576000000000D+05 -.242143869400D-07 -.147713981689D+01  .154599547386D-06
     .965439355361D+00  .291062500000D+03 -.239894647752D+00 -.813891044686D-08
     .814319633967D-10  .100000000000D+01  .196800000000D+04  .000000000000D+00
     .240000000000D+01  .000000000000D+00 -.135041773319D-07  .440000000000D+03
     .504060000000D+05  .400000000000D+01
32 17  9 24 16  0  0.0 -.504556111991D-03 -.534328137292D-11  .000000000000D+00
     .102000000000D+03  .333125000000D+02  .436482466961D-08 -.102139344251D+01
     .160560011864D-05  .141925446223D-02  .108685344458D-04  .515376956749D+04
     .576000000000D+05  .117346644402D-06 -.256350715961D+01  .167638063431D-07
     .957963427045D+00  .173437500000D+03 -.256117418417D+01 -.790104339589D-08
    -.230009580822D-09  .100000000000D+01  .196800000000D+04  .000000000000D+00
     .240000000000D+01  .000000000000D+00  .931322574615D-09  .358000000000D+03
     .504060000000D+05  .400000000000D+01
25 17  9 24 15 59 44.0 -.461618416011D-03 -.636646291241D-11  .000000000000D+00
     .185000000000D+03 -.520000000000D+02  .425196282560D-08  .780446285178D+00
    -.291503965855D-05  .657452200539D-02  .505894422531D-05  .515375221062D+04
     .575840000000D+05 -.428408384323D-07 -.458147894853D+00  .465661287308D-07
     .976460953838D+00  .290812500000D+03  .823821291281D+00 -.818784105645D-08
    -.220723479733D-09  .100000000000D+01  .196800000000D+04  .000000000000D+00
     .240000000000D+01  .000000000000D+00  .558793544769D-08  .441000000000D+03
     .531360000000D+05  .400000000000D+01
 1 17  9 24 15 59 44.0 -.237952917814D-05 -.568434188608D-12  .000000000000D+00
     .183000000000D+03  .218437500000D+02  .467162316328D-08  .245050946976D+01
     .111013650894D-05  .704251939896D-02  .700354576111D-05  .515367543411D+04
     .575840000000D+05 -.987201929092D-07  .163809529391D+01 -.800937414169D-07
     .968262649740D+00  .248187500000D+03  .626174387865D+00 -.801176229349D-08
     .413588656199D-09  .100000000000D+01  .196800000000D+04  .000000000000D+00
     .240000000000D+01  .000000000000D+00  .558793544769D-08  .439000000000D+03
     .531960000000D+05  .400000000000D+01
 8 17  9 24 15 59 44.0 -.746455043554D-04 -.136424205266D-11  .000000000000D+00
     .185000000000D+03 -.341250000000D+02  .419124601079D-08 -.111207140878D+01
    -.201165676117D-05  .263018964324D-02  .110361725092D-04  .515369870949D+04
     .575840000000D+05 -.298023223877D-07  .574326132452D+00 -.335276126862D-07
     .967796686925D+00  .171093750000D+03 -.630066624781D+00 -.788711424425D-08
     .187150652719D-09  .100000000000D+01  .196800000000D+04  .000000000000D+00
     .240000000000D+01  .000000000000D+00  .558793544769D-08  .441000000000D+03
     .573060000000D+05  .400000000000D+01
32 17  9 24 15 59 44.0 -.504555180669D-03 -.534328137292D-11  .000000000000D+00
     .184000000000D+03  .333125000000D+02  .436446751188D-08 -.102372269921D+01
     .160560011864D-05  .141925981734D-02  .108685344458D-04  .515376956558D+04
     .575840000000D+05  .117346644402D-06 -.256350704404D+01  .167638063431D-07
     .957963450451D+00  .173437500000D+03 -.256117854074D+01 -.790104339589D-08
    -.230009580822D-09  .100000000000D+01  .196800000000D+04  .000000000000D+00
     .240000000000D+01  .000000000000D+00  .931322574615D-09  .440000000000D+03
     .573060000000D+05  .400000000000D+01
 1 17  9 24 17 59 44.0 -.238325446844D-05 -.568434188608D-12  .000000000000D+00
     .184000000000D+03  .238750000000D+02  .462233539597D-08 -.278251804906D+01
     .107288360596D-05  .704206898808D-02  .692903995514D-05  .515367630577D+04
     .647840000000D+05 -.204890966415D-07  .163803755546D+01 -.119209289551D-06
     .968265666277D+00  .251281250000D+03  .626197020671D+00 -.801961976364D-08
     .438946855327D-09  .100000000000D+01  .196800000000D+04  .000000000000D+00
     .240000000000D+01  .000000000000D+00  .558793544769D-08  .440000000000D+03
     .576060000000D+05  .400000000000D+01
 8 17  9 24 17 59 44.0 -.746552832425D-04 -.136424205266D-11  .000000000000D+00
     .186000000000D+03 -.298750000000D+02  .418946022212D-08 -.622935841264D-01
    -.163353979588D-05  .262908649165D-02  .103376805782D-04  .515369591331D+04
     .647840000000D+05  .242143869400D-07  .574269494115D+00 -.409781932831D-07
     .967797870426D+00  .181468750000D+03 -.629680164249D+00 -.790961518151D-08
     .150720563831D-09  .100000000000D+01  .196800000000D+04  .000000000000D+00
     .240000000000D+01  .000000000000D+00  .558793544769D-08  .442000000000D+03
     .576060000000D+05  .400000000000D+01
25 17  9 24 17 59 44.0 -.461664516479D-03 -.636646291241D-11  .000000000000D+00
     .186000000000D+03 -.446562500000D+02  .421874715632D-08  .183076204236D+01
    -.238977372646D-05  .657403981313D-02  .466033816338D-05  .515374976349D+04
     .647840000000D+05 -.100582838058D-06 -.458207008447D+00 -.279396772385D-07
     .976459596250D+00  .296843750000D+03  .823637528289D+00 -.813676750046D-08
    -.182507602174D-09  .100000000000D+01  .196800000000D+04  .000000000000D+00
     .240000000000D+01  .000000000000D+00  .558793544769D-08  .442000000000D+03
     .576060000000D+05  .400000000000D+01
32 17  9 24 17 59 44.0 -.504593364894D-03 -.534328137292D-11  .000000000000D+00
     .185000000000D+03  .271250000000D+02  .449411576939D-08  .266222344086D-01
     .135041773319D-05  .141897960566D-02  .105854123831D-04  .515376939011D+04
     .647840000000D+05  .745058059692D-08 -.256356435678D+01  .204890966415D-07
     .957961326294D+00  .173718750000D+03 -.256140227504D+01 -.800390482333D-08
    -.230009580822D-09  .100000000000D+01  .196800000000D+04  .000000000000D+00
     .240000000000D+01  .000000000000D+00  .931322574615D-09  .441000000000D+03
     .576060000000D+05  .400000000000D+01
 2 17  9 24 18  0  0.0  .322454143316D-03 -.920863385545D-11  .000000000000D+00
     .186000000000D+03  .170937500000D+02  .503020952842D-08 -.237518245735D+01
     .892207026482D-06  .170880211517D-01  .681914389133D-05  .515358626175D+04
     .648000000000D+05  .283122062683D-06  .158207982418D+01  .260770320892D-07
     .947246503202D+00  .236031250000D+03 -.195391895218D+01 -.804854954011D-08
     .577881213929D-09  .100000000000D+01  .196800000000D+04  .000000000000D+00
     .240000000000D+01  .000000000000D+00 -.204890966415D-07  .442000000000D+03
     .576060000000D+05  .400000000000D+01
 3 17  9 24 18  0  0.0 -.640666112304D-04  .443378667114D-11  .000000000000D+00
     .186000000000D+03 -.347500000000D+02  .478948521557D-08  .254074208134D+01
    -.184774398804D-05  .100751442369D-02  .703334808350D-05  .515365017700D+04
     .648000000000D+05 -.428408384323D-07  .268086721411D+01 -.745058059692D-08
     .960447432685D+00  .242250000000D+03  .462872179593D+00 -.811426656320D-08
    -.320727645308D-09  .100000000000D+01  .196800000000D+04  .000000000000D+00
     .240000000000D+01  .000000000000D+00  .232830643654D-08  .442000000000D+03
     .576060000000D+05  .400000000000D+01
 4 17  9 24 18  0  0.0  .327979214489D-04  .750333128963D-11  .000000000000D+00
     .166000000000D+03 -.390000000000D+02  .448518682603D-08 -.348892740052D+00
    -.192970037460D-05  .123588494025D-01  .951439142227D-05  .515366994095D+04
     .648000000000D+05  .154599547386D-06  .491049033638D+00  .124797224998D-06
     .957239952612D+00  .195750000000D+03  .441141969574D+00 -.819712715753D-08
     .108218793461D-09  .100000000000D+01  .196800000000D+04  .000000000000D+00
     .340000000000D+01  .630000000000D+02 -.558793544769D-08  .422000000000D+03
     .576060000000D+05  .400000000000D+01
 5 17  9 24 18  0  0.0 -.282879918814D-04  .136424205266D-11  .000000000000D+00
     .182000000000D+03 -.324375000000D+02  .523057501730D-08  .148855454827D+00
    -.160187482834D-05  .521497230511D-02  .634044408798D-05  .515355501938D+04
     .648000000000D+05  .149011611938D-07  .266241207245D+01  .447034835815D-07
     .947368137526D+00  .247156250000D+03  .590451351789D+00 -.844213736319D-08
    -.347157317639D-09  .100000000000D+01  .196800000000D+04  .000000000000D+00
     .240000000000D+01  .000000000000D+00 -.107102096081D-07  .438000000000D+03
     .576060000000D+05  .400000000000D+01
 6 17  9 24 18  0  0.0  .399912241846D-03  .284217094304D-11  .000000000000D+00
     .185000000000D+03  .167187500000D+02  .469626704694D-08 -.259029431462D+01
     .961124897003D-06  .557453837246D-03  .711157917976D-05  .515374809074D+04
     .648000000000D+05  .372529029846D-08  .162967477987D+01  .409781932831D-07
     .968019401574D+00  .246343750000D+03 -.114927892195D+01 -.807962226298D-08
     .446447167745D-09  .100000000000D+01  .196800000000D+04  .000000000000D+00
     .240000000000D+01  .000000000000D+00  .465661287308D-08  .441000000000D+03
     .576060000000D+05  .400000000000D+01
 7 17  9 24 18  0  0.0  .301902182400D-03 -.488853402203D-11  .000000000000D+00
     .188000000000D+03  .791875000000D+02  .451947396852D-08  .287191920237D+01
     .393018126488D-05  .110579645261D-01  .492669641972D-05  .515372282410D+04
     .648000000000D+05 -.745058059692D-08 -.148866982914D+01 -.126659870148D-06
     .960723148855D+00  .284656250000D+03 -.255626462817D+01 -.810283751571D-08
     .183221917643D-09  .100000000000D+01  .196800000000D+04  .000000000000D+00
     .240000000000D+01  .000000000000D+00 -.111758708954D-07  .444000000000D+03
     .576060000000D+05  .400000000000D+01
